[
    {
        "Altitude(m)": 607897.6242019631,
        "Argument of Periapsis(deg)": 0.0,
        "Eccentricity": 0.0,
        "Inclination(deg)": 60.0,
        "Latitude(deg)": -14.292988459817916,
        "Longitude(deg)": -173.38126917100388,
        "Mean Anomaly(deg)": -16.363600000000037,
        "RAAN(deg)": 295.00000000000006,
        "Satellite Name": "Test1 1319",
        "Satellite Number": 1319,
        "Semi-Major Axis(m)": 6980739.136638005,
        "Time(s)": 0
    },
    {
        "Altitude(m)": 607750.8252412118,
        "Argument of Periapsis(deg)": 0.00010418945913296404,
        "Eccentricity": 0.0,
        "Inclination(deg)": 60.0,
        "Latitude(deg)": -13.758830345353998,
        "Longitude(deg)": -173.0941992345985,
        "Mean Anomaly(deg)": -15.743493854538185,
        "RAAN(deg)": 294.99957995086027,
        "Satellite Name": "Test1 1319",
        "Satellite Number": 1319,
        "Semi-Major Axis(m)": 6980739.136638005,
        "Time(s)": 10
    }
]